STRAND-1                
1 39090U 13009E   26087.78078808  .00000369  00000+0  13860-3 0  9991
2 39090  98.3903 269.9991 0009792 109.4666 250.7580 14.37110554685512
