{
  "norad_id": 39090,
  "name": "STRAND-1",
  "history": [
    {
      "epoch": "2026-03-28T18:44:20.090112Z",
      "apogee_km": 775.0593000666995,
      "perigee_km": 761.0630421766682,
      "latitude_deg": 3.088320989223145e-05,
      "longitude_deg": 162.71907094055504,
      "height_km": 773.322011833194,
      "semi_major_axis_km": 7146.198171121684,
      "eccentricity": 0.00097928,
      "inclination_deg": 98.3903,
      "raan_deg": 269.9991,
      "arg_perigee_deg": 109.4666,
      "mean_anomaly_deg": 250.758,
      "mean_motion_rev_day": 14.37110554
    }
  ]
}